{
  "links" : {
    "next" : "https://api.nasa.gov/neo/rest/v1/feed?start_date=2005-03-09&end_date=2005-03-09&detailed=true&api_key=t0TVs3DtDT2H8Oy2Zy8m2eVrNsAVKAexjcZXUckd",
    "prev" : "https://api.nasa.gov/neo/rest/v1/feed?start_date=2005-03-07&end_date=2005-03-07&detailed=true&api_key=t0TVs3DtDT2H8Oy2Zy8m2eVrNsAVKAexjcZXUckd",
    "self" : "https://api.nasa.gov/neo/rest/v1/feed?start_date=2005-03-08&end_date=2005-03-08&detailed=true&api_key=t0TVs3DtDT2H8Oy2Zy8m2eVrNsAVKAexjcZXUckd"
  },
  "element_count" : 7,
  "near_earth_objects" : {
    "2005-03-08" : [ {
      "links" : {
        "self" : "https://api.nasa.gov/neo/rest/v1/neo/3457435?api_key=t0TVs3DtDT2H8Oy2Zy8m2eVrNsAVKAexjcZXUckd"
      },
      "neo_reference_id" : "3457435",
      "name" : "(2009 HS2)",
      "nasa_jpl_url" : "http://ssd.jpl.nasa.gov/sbdb.cgi?sstr=3457435",
      "absolute_magnitude_h" : 21.8,
      "estimated_diameter" : {
        "kilometers" : {
          "estimated_diameter_min" : 0.1160259082,
          "estimated_diameter_max" : 0.2594418179
        },
        "meters" : {
          "estimated_diameter_min" : 116.0259082094,
          "estimated_diameter_max" : 259.4418179074
        },
        "miles" : {
          "estimated_diameter_min" : 0.0720951346,
          "estimated_diameter_max" : 0.1612096218
        },
        "feet" : {
          "estimated_diameter_min" : 380.6624406898,
          "estimated_diameter_max" : 851.1870938635
        }
      },
      "is_potentially_hazardous_asteroid" : false,
      "close_approach_data" : [ {
        "close_approach_date" : "2005-03-08",
        "epoch_date_close_approach" : 1110268800000,
        "relative_velocity" : {
          "kilometers_per_second" : "16.5333185566",
          "kilometers_per_hour" : "59519.9468037863",
          "miles_per_hour" : "36983.3802792749"
        },
        "miss_distance" : {
          "astronomical" : "0.3597798116",
          "lunar" : "139.9543457031",
          "kilometers" : "53822292",
          "miles" : "33443622"
        },
        "orbiting_body" : "Earth"
      } ],
      "orbital_data" : {
        "orbit_id" : "9",
        "orbit_determination_date" : "2017-04-11 05:43:24",
        "orbit_uncertainty" : "0",
        "minimum_orbit_intersection" : ".106036",
        "jupiter_tisserand_invariant" : "2.830",
        "epoch_osculation" : "2458000.5",
        "eccentricity" : ".8194891265542915",
        "semi_major_axis" : "2.523504647353755",
        "inclination" : "15.87409223452621",
        "ascending_node_longitude" : "31.06182880116945",
        "orbital_period" : "1464.21411856983",
        "perihelion_distance" : ".455520028038131",
        "perihelion_argument" : "54.75177314552135",
        "aphelion_distance" : "4.59148926666938",
        "perihelion_time" : "2457793.537770120204",
        "mean_anomaly" : "50.8849093939215",
        "mean_motion" : ".245865680049329",
        "equinox" : "J2000"
      }
    } ]
  }
}